#cV2022  2 13  0  0  0.00000000    1891   SLR   ECF FIT NSGF
## 2197      0.00000000   180.00000000 59623 0.0000000000000
+    1   L56  0  0  0  0  0  0  0  0  0  0  0  0  0  0  0  0
+          0  0  0  0  0  0  0  0  0  0  0  0  0  0  0  0  0
+          0  0  0  0  0  0  0  0  0  0  0  0  0  0  0  0  0
+          0  0  0  0  0  0  0  0  0  0  0  0  0  0  0  0  0
+          0  0  0  0  0  0  0  0  0  0  0  0  0  0  0  0  0
++         0  0  0  0  0  0  0  0  0  0  0  0  0  0  0  0  0
++         0  0  0  0  0  0  0  0  0  0  0  0  0  0  0  0  0
++         0  0  0  0  0  0  0  0  0  0  0  0  0  0  0  0  0
++         0  0  0  0  0  0  0  0  0  0  0  0  0  0  0  0  0
++         0  0  0  0  0  0  0  0  0  0  0  0  0  0  0  0  0
%c L  cc UTC ccc cccc cccc cccc cccc ccccc ccccc ccccc ccccc
%c cc cc ccc ccc cccc cccc cccc cccc ccccc ccccc ccccc ccccc
%f  0.0000000  0.000000000  0.00000000000  0.000000000000000
%f  0.0000000  0.000000000  0.00000000000  0.000000000000000
%i    0    0    0    0      0      0      0      0         0
%i    0    0    0    0      0      0      0      0         0
/*                                                          
/* Earth-centered-fixed orbital predictions from SGF ILRS AC
/* The underlying ECF frame is that of IERS/ITRF            
/* Note: Solution based on 4-day long arc                   
/*                                                          
*  2022  2 13 17  0  0.00000000
PL56  -5611.735967  -1753.571440  -4126.615296
VL56  34512.855000  30142.684000 -59884.792000
*  2022  2 13 17  3  0.00000000
PL56  -4889.940163  -1192.873282  -5126.512013
VL56  45460.058000  31928.498000 -50894.357000
*  2022  2 13 17  6  0.00000000
PL56  -3984.515082   -612.389785  -5948.290871
VL56  54852.294000  32342.196000 -40152.309000
*  2022  2 13 17  9  0.00000000
PL56  -2926.714439    -36.587056  -6563.735508
VL56  62337.366000  31418.903000 -28035.109000
*  2022  2 13 17 12  0.00000000
PL56  -1753.531037    511.192481  -6951.816307
VL56  67631.508000  29247.511000 -14962.483000
*  2022  2 13 17 15  0.00000000
PL56   -506.380000   1009.647422  -7099.341677
VL56  70528.406000  25964.838000  -1383.194400
*  2022  2 13 17 18  0.00000000
PL56    770.355570   1440.318548  -7001.352043
VL56  70905.492000  21748.572000  12239.182000
*  2022  2 13 17 21  0.00000000
PL56   2030.874033   1788.251722  -6661.263160
VL56  68728.350000  16809.078000  25439.964000
*  2022  2 13 17 24  0.00000000
PL56   3229.567506   2042.507252  -6090.756346
VL56  64052.945000  11380.436000  37767.824000
*  2022  2 13 17 27  0.00000000
PL56   4322.647420   2196.499739  -5309.408558
VL56  57025.115000   5710.709700  48799.108000
*  2022  2 13 17 30  0.00000000
PL56   5269.734701   2248.159053  -4344.073461
VL56  47877.208000     51.863184  58151.287000
*  2022  2 13 17 33  0.00000000
PL56   6035.368319   2199.908232  -3228.016085
VL56  36921.981000  -5350.581100  65496.646000
*  2022  2 13 17 36  0.00000000
PL56   6590.370655   2058.455153  -1999.814971
VL56  24542.985000 -10267.717000  70574.461000
*  2022  2 13 17 39  0.00000000
PL56   6913.013182   1834.404329   -702.056459
VL56  11181.832000 -14497.052000  73201.731000
*  2022  2 13 17 42  0.00000000
PL56   6989.919390   1541.700506    620.142293
VL56  -2677.988000 -17871.296000  73281.310000
*  2022  2 13 17 45  0.00000000
PL56   6816.652262   1196.927493   1920.723763
VL56 -16529.841000 -20265.520000  70806.261000
*  2022  2 13 17 48  0.00000000
PL56   6397.957547    818.496484   3154.328146
VL56 -29863.509000 -21602.327000  65860.947000
*  2022  2 13 17 51  0.00000000
PL56   5747.642266    425.760583   4277.914728
VL56 -42185.690000 -21854.681000  58617.824000
*  2022  2 13 17 54  0.00000000
PL56   4888.092578     38.102400   5252.291119
VL56 -53039.516000 -21046.155000  49330.595000
*  2022  2 13 17 57  0.00000000
PL56   3849.461340   -325.959695   6043.490334
VL56 -62021.758000 -19248.739000  38324.343000
*  2022  2 13 18  0  0.00000000
PL56   2668.562708   -649.606526   6623.947559
VL56 -68797.638000 -16578.267000  25983.041000
*  2022  2 13 18  3  0.00000000
PL56   1387.529597   -918.454798   6973.438904
VL56 -73112.590000 -13188.375000  12736.022000
*  2022  2 13 18  6  0.00000000
PL56     52.286154  -1121.170286   7079.765823
VL56 -74801.244000  -9262.872800   -956.886670
*  2022  2 13 18  9  0.00000000
PL56  -1289.113357  -1249.934014   6939.164844
VL56 -73792.912000  -5007.016000 -14620.902000
*  2022  2 13 18 12  0.00000000
PL56  -2588.218072  -1300.744438   6556.436840
VL56 -70114.361000   -638.086590 -27781.687000
*  2022  2 13 18 15  0.00000000
PL56  -3797.933333  -1273.544396   5944.800210
VL56 -63889.365000   3624.580000 -39980.812000
*  2022  2 13 18 18  0.00000000
PL56  -4874.247933  -1172.171075   5125.470140
VL56 -55335.982000   7569.245500 -50790.940000
*  2022  2 13 18 21  0.00000000
PL56  -5777.877738  -1004.131285   4126.955910
VL56 -44759.935000  11001.502000 -59831.406000
*  2022  2 13 18 24  0.00000000
PL56  -6475.754227   -780.205897   2984.088770
VL56 -32544.087000  13753.416000 -66782.635000
*  2022  2 13 18 27  0.00000000
PL56  -6942.295019   -513.899363   1736.812126
VL56 -19134.870000  15691.521000 -71398.091000
*  2022  2 13 18 30  0.00000000
PL56  -7160.403156   -220.758280    428.767165
VL56  -5025.545200  16723.287000 -73514.911000
*  2022  2 13 18 33  0.00000000
PL56  -7122.133774     82.408589   -894.278603
VL56   9263.686700  16801.571000 -73060.493000
*  2022  2 13 18 36  0.00000000
PL56  -6828.990428    378.370463  -2186.087820
VL56  23206.764000  15926.778000 -70055.305000
*  2022  2 13 18 39  0.00000000
PL56  -6291.839792    650.330649  -3401.618610
VL56  36292.781000  14146.482000 -64611.210000
*  2022  2 13 18 42  0.00000000
PL56  -5530.455338    882.755830  -4498.632016
VL56  48046.359000  11552.850000 -56926.483000
*  2022  2 13 18 45  0.00000000
PL56  -4572.710925   1062.137534  -5439.168757
VL56  58045.538000   8277.713700 -47276.665000
*  2022  2 13 18 48  0.00000000
PL56  -3453.480520   1177.648224  -6190.836425
VL56  65936.617000   4485.871700 -36002.658000
*  2022  2 13 18 51  0.00000000
PL56  -2213.305693   1221.664056  -6727.871730
VL56  71445.156000    367.084590 -23497.779000
*  2022  2 13 18 54  0.00000000
PL56   -896.892739   1190.136859  -7031.957347
VL56  74383.879000  -3872.576300 -10193.694000
*  2022  2 13 18 57  0.00000000
PL56    448.502212   1082.805930  -7092.781600
VL56  74657.206000  -8019.903000   3454.061100
*  2022  2 13 19  0  0.00000000
PL56   1774.743060    903.243795  -6908.344409
VL56  72263.145000 -11863.726000  16979.797000
*  2022  2 13 19  3  0.00000000
PL56   3034.502292    658.736125  -6485.013122
VL56  67293.257000 -15204.170000  29922.026000
*  2022  2 13 19  6  0.00000000
PL56   4182.920879    359.998356  -5837.317363
VL56  59929.518000 -17861.466000  41837.671000
*  2022  2 13 19  9  0.00000000
PL56   5179.188552     20.737206  -4987.490206
VL56  50438.731000 -19684.313000  52316.051000
*  2022  2 13 19 12  0.00000000
PL56   5988.003095   -342.929431  -3964.762691
VL56  39164.546000 -20557.284000  60992.595000
*  2022  2 13 19 15  0.00000000
PL56   6580.857926   -713.176319  -2804.413851
VL56  26516.243000 -20407.018000  67561.987000
*  2022  2 13 19 18  0.00000000
PL56   6937.102875  -1071.273370  -1546.596225
VL56  12954.888000 -19206.932000  71789.900000
*  2022  2 13 19 21  0.00000000
PL56   7044.727929  -1398.452835   -234.964474
VL56  -1023.580000 -16979.660000  73522.918000
*  2022  2 13 19 24  0.00000000
PL56   6900.823987  -1676.800874   1084.846651
VL56 -14907.156000 -13797.278000  72695.319000
*  2022  2 13 19 27  0.00000000
PL56   6511.691971  -1890.131428   2366.837779
VL56 -28187.895000  -9779.110300  69332.534000
*  2022  2 13 19 30  0.00000000
PL56   5892.587126  -2024.797872   3566.287220
VL56 -40382.146000  -5086.990800  63550.722000
*  2022  2 13 19 33  0.00000000
PL56   5067.107164  -2070.399346   4641.347158
VL56 -51049.618000     81.547389  55551.967000
*  2022  2 13 19 36  0.00000000
PL56   4066.258589  -2020.347811   5554.523604
VL56 -59809.890000   5501.935800  45616.344000
*  2022  2 13 19 39  0.00000000
PL56   2927.251754  -1872.268742   6273.988647
VL56 -66356.157000  10932.275000  34091.348000
*  2022  2 13 19 42  0.00000000
PL56   1692.076098  -1628.219733   6774.678150
VL56 -70465.582000  16123.778000  21378.726000
*  2022  2 13 19 45  0.00000000
PL56    405.922142  -1294.718476   7039.142390
VL56 -72006.232000  20831.459000   7920.315600
*  2022  2 13 19 48  0.00000000
PL56   -884.489987   -882.578134   7058.132428
VL56 -70940.366000  24824.772000  -5817.123900
*  2022  2 13 19 51  0.00000000
PL56  -2132.613755   -406.555790   6830.910474
VL56 -67324.767000  27897.691000 -19357.223000
*  2022  2 13 19 54  0.00000000
PL56  -3293.757714    115.174989   6365.284455
VL56 -61308.149000  29878.097000 -32229.336000
*  2022  2 13 19 57  0.00000000
PL56  -4326.698316    661.712599   5677.365351
VL56 -53126.049000  30636.288000 -43984.145000
*  2022  2 13 20  0  0.00000000
PL56  -5195.174755   1210.254713   4791.043788
VL56 -43092.752000  30091.845000 -54209.168000
*  2022  2 13 20  3  0.00000000
PL56  -5869.209946   1737.037104   3737.190138
VL56 -31589.999000  28218.998000 -62543.824000
*  2022  2 13 20  6  0.00000000
PL56  -6326.201246   2218.348113   2552.594971
VL56 -19052.859000  25049.657000 -68692.954000
*  2022  2 13 20  9  0.00000000
PL56  -6551.733145   2631.574465   1278.681731
VL56  -5953.016200  20673.800000 -72438.680000
*  2022  2 13 20 12  0.00000000
PL56  -6540.072874   2956.230598    -39.969546
VL56   7219.761500  15237.221000 -73649.468000
*  2022  2 13 20 15  0.00000000
PL56  -6294.314914   3174.918274  -1357.231245
VL56  19977.771000   8936.046100 -72285.450000
*  2022  2 13 20 18  0.00000000
PL56  -5826.166769   3274.166271  -2627.097042
VL56  31854.945000   2008.968000 -68399.769000
*  2022  2 13 20 21  0.00000000
PL56  -5155.386672   3245.108571  -3805.339058
VL56  42425.730000  -5272.831400 -62136.128000
EOF
